{
  "type": "FeatureCollection",
  "features": [
    {
      "type": "Feature",
      "properties": {
        "norad_id": 38146,
        "name": "FENGYUN 1C DEB",
        "group": "fengyun-1c-debris",
        "lat": -15.922666515307153,
        "lon": -105.85851389662491,
        "alt_km": 765.651053913828,
        "timestamp": "2025-12-21T03:56:51.124629+00:00",
        "meta_object_name": "FENGYUN 1C DEB",
        "meta_object_id": "1999-025EQT",
        "meta_epoch": "2025-12-18T00:08:51.919008",
        "meta_mean_motion": 14.59286747,
        "meta_eccentricity": 0.02022294,
        "meta_inclination": 99.4834,
        "meta_ra_of_asc_node": 73.268,
        "meta_arg_of_pericenter": 87.2264,
        "meta_mean_anomaly": 84.0387,
        "meta_ephemeris_type": 0,
        "meta_classification_type": "U",
        "meta_norad_cat_id": 38146,
        "meta_element_set_no": 999,
        "meta_rev_at_epoch": 31956,
        "meta_bstar": 0.00063226228,
        "meta_mean_motion_dot": 3.907e-05,
        "meta_mean_motion_ddot": 0,
        "tle_line1": "1 38146U 99025EQT 25352.00615647  .00003907  00000+0  63226-3 0  9993",
        "tle_line2": "2 38146  99.4834  73.2680 0202229  87.2264  84.0387 14.59286747319560"
      },
      "geometry": {
        "type": "Point",
        "coordinates": [
          -105.85851389662491,
          -15.922666515307153
        ]
      }
    },
    {
      "type": "Feature",
      "properties": {
        "norad_id": 38147,
        "name": "FENGYUN 1C DEB",
        "group": "fengyun-1c-debris",
        "lat": -4.874454695147674,
        "lon": 9.893126846030114,
        "alt_km": 810.7363249798418,
        "timestamp": "2025-12-21T03:56:51.124638+00:00",
        "meta_object_name": "FENGYUN 1C DEB",
        "meta_object_id": "1999-025EQU",
        "meta_epoch": "2025-12-20T07:43:36.428160",
        "meta_mean_motion": 14.2346331,
        "meta_eccentricity": 0.004968,
        "meta_inclination": 98.5569,
        "meta_ra_of_asc_node": 8.3381,
        "meta_arg_of_pericenter": 277.7736,
        "meta_mean_anomaly": 81.7804,
        "meta_ephemeris_type": 0,
        "meta_classification_type": "U",
        "meta_norad_cat_id": 38147,
        "meta_element_set_no": 999,
        "meta_rev_at_epoch": 60495,
        "meta_bstar": 0.0004285192,
        "meta_mean_motion_dot": 9.43e-06,
        "meta_mean_motion_ddot": 0,
        "tle_line1": "1 38147U 99025EQU 25354.32194940  .00000943  00000+0  42852-3 0  9998",
        "tle_line2": "2 38147  98.5569   8.3381 0049680 277.7736  81.7804 14.23463310604955"
      },
      "geometry": {
        "type": "Point",
        "coordinates": [
          9.893126846030114,
          -4.874454695147674
        ]
      }
    },
    {
      "type": "Feature",
      "properties": {
        "norad_id": 38149,
        "name": "FENGYUN 1C DEB",
        "group": "fengyun-1c-debris",
        "lat": -31.71189969262356,
        "lon": 161.7988952089035,
        "alt_km": 797.0027718561769,
        "timestamp": "2025-12-21T03:56:51.124647+00:00",
        "meta_object_name": "FENGYUN 1C DEB",
        "meta_object_id": "1999-025EQW",
        "meta_epoch": "2025-12-07T17:18:01.960128",
        "meta_mean_motion": 14.25910713,
        "meta_eccentricity": 0.00777044,
        "meta_inclination": 98.3566,
        "meta_ra_of_asc_node": 334.1881,
        "meta_arg_of_pericenter": 175.9559,
        "meta_mean_anomaly": 184.2267,
        "meta_ephemeris_type": 0,
        "meta_classification_type": "U",
        "meta_norad_cat_id": 38149,
        "meta_element_set_no": 999,
        "meta_rev_at_epoch": 70416,
        "meta_bstar": 0.00036135678,
        "meta_mean_motion_dot": 8.47e-06,
        "meta_mean_motion_ddot": 0,
        "tle_line1": "1 38149U 99025EQW 25341.72085602  .00000847  00000+0  36136-3 0  9995",
        "tle_line2": "2 38149  98.3566 334.1881 0077704 175.9559 184.2267 14.25910713704169"
      },
      "geometry": {
        "type": "Point",
        "coordinates": [
          161.7988952089035,
          -31.71189969262356
        ]
      }
    },
    {
      "type": "Feature",
      "properties": {
        "norad_id": 38155,
        "name": "FENGYUN 1C DEB",
        "group": "fengyun-1c-debris",
        "lat": 54.85213453532639,
        "lon": 91.38055967378602,
        "alt_km": 737.4211853918732,
        "timestamp": "2025-12-21T03:56:51.124656+00:00",
        "meta_object_name": "FENGYUN 1C DEB",
        "meta_object_id": "1999-025ERC",
        "meta_epoch": "2025-12-18T23:08:16.383264",
        "meta_mean_motion": 14.25112386,
        "meta_eccentricity": 0.00979258,
        "meta_inclination": 98.4473,
        "meta_ra_of_asc_node": 257.0769,
        "meta_arg_of_pericenter": 108.7402,
        "meta_mean_anomaly": 252.4435,
        "meta_ephemeris_type": 0,
        "meta_classification_type": "U",
        "meta_norad_cat_id": 38155,
        "meta_element_set_no": 999,
        "meta_rev_at_epoch": 63864,
        "meta_bstar": 0.0016814228,
        "meta_mean_motion_dot": 4.107e-05,
        "meta_mean_motion_ddot": 0,
        "tle_line1": "1 38155U 99025ERC 25352.96407851  .00004107  00000+0  16814-2 0  9997",
        "tle_line2": "2 38155  98.4473 257.0769 0097925 108.7402 252.4435 14.25112386638644"
      },
      "geometry": {
        "type": "Point",
        "coordinates": [
          91.38055967378602,
          54.85213453532639
        ]
      }
    },
    {
      "type": "Feature",
      "properties": {
        "norad_id": 38157,
        "name": "FENGYUN 1C DEB",
        "group": "fengyun-1c-debris",
        "lat": 70.96254553780922,
        "lon": -126.64329933451403,
        "alt_km": 623.3908433467368,
        "timestamp": "2025-12-21T03:56:51.124665+00:00",
        "meta_object_name": "FENGYUN 1C DEB",
        "meta_object_id": "1999-025ERE",
        "meta_epoch": "2025-12-18T23:15:19.062432",
        "meta_mean_motion": 14.21759135,
        "meta_eccentricity": 0.02742522,
        "meta_inclination": 99.6569,
        "meta_ra_of_asc_node": 260.5201,
        "meta_arg_of_pericenter": 96.8894,
        "meta_mean_anomaly": 266.356,
        "meta_ephemeris_type": 0,
        "meta_classification_type": "U",
        "meta_norad_cat_id": 38157,
        "meta_element_set_no": 999,
        "meta_rev_at_epoch": 76336,
        "meta_bstar": 0.00050562821,
        "meta_mean_motion_dot": 1.574e-05,
        "meta_mean_motion_ddot": 0,
        "tle_line1": "1 38157U 99025ERE 25352.96897063  .00001574  00000+0  50563-3 0  9992",
        "tle_line2": "2 38157  99.6569 260.5201 0274252  96.8894 266.3560 14.21759135763363"
      },
      "geometry": {
        "type": "Point",
        "coordinates": [
          -126.64329933451403,
          70.96254553780922
        ]
      }
    },
    {
      "type": "Feature",
      "properties": {
        "norad_id": 38159,
        "name": "FENGYUN 1C DEB",
        "group": "fengyun-1c-debris",
        "lat": -50.2397306354187,
        "lon": -101.60325075092824,
        "alt_km": 847.6031825075233,
        "timestamp": "2025-12-21T03:56:51.124674+00:00",
        "meta_object_name": "FENGYUN 1C DEB",
        "meta_object_id": "1999-025ERG",
        "meta_epoch": "2025-12-04T22:05:20.152032",
        "meta_mean_motion": 14.03448484,
        "meta_eccentricity": 0.005704,
        "meta_inclination": 99.3156,
        "meta_ra_of_asc_node": 230.39,
        "meta_arg_of_pericenter": 2.347,
        "meta_mean_anomaly": 357.7952,
        "meta_ephemeris_type": 0,
        "meta_classification_type": "U",
        "meta_norad_cat_id": 38159,
        "meta_element_set_no": 999,
        "meta_rev_at_epoch": 83002,
        "meta_bstar": 0.0010527,
        "meta_mean_motion_dot": 1.625e-05,
        "meta_mean_motion_ddot": 0,
        "tle_line1": "1 38159U 99025ERG 25338.92037213  .00001625  00000+0  10527-2 0  9999",
        "tle_line2": "2 38159  99.3156 230.3900 0057040   2.3470 357.7952 14.03448484830021"
      },
      "geometry": {
        "type": "Point",
        "coordinates": [
          -101.60325075092824,
          -50.2397306354187
        ]
      }
    },
    {
      "type": "Feature",
      "properties": {
        "norad_id": 38163,
        "name": "FENGYUN 1C DEB",
        "group": "fengyun-1c-debris",
        "lat": -54.80042922338383,
        "lon": 44.932476789276286,
        "alt_km": 875.3463149364143,
        "timestamp": "2025-12-21T03:56:51.124683+00:00",
        "meta_object_name": "FENGYUN 1C DEB",
        "meta_object_id": "1999-025ERL",
        "meta_epoch": "2025-12-18T21:33:29.990592",
        "meta_mean_motion": 14.05931251,
        "meta_eccentricity": 0.00762702,
        "meta_inclination": 99.1281,
        "meta_ra_of_asc_node": 29.4748,
        "meta_arg_of_pericenter": 225.191,
        "meta_mean_anomaly": 134.304,
        "meta_ephemeris_type": 0,
        "meta_classification_type": "U",
        "meta_norad_cat_id": 38163,
        "meta_element_set_no": 999,
        "meta_rev_at_epoch": 24628,
        "meta_bstar": 0.00077081788,
        "meta_mean_motion_dot": 1.25e-05,
        "meta_mean_motion_ddot": 0,
        "tle_line1": "1 38163U 99025ERL 25352.89826378  .00001250  00000+0  77082-3 0  9998",
        "tle_line2": "2 38163  99.1281  29.4748 0076270 225.1910 134.3040 14.05931251246287"
      },
      "geometry": {
        "type": "Point",
        "coordinates": [
          44.932476789276286,
          -54.80042922338383
        ]
      }
    }
  ]
}